STARLINK-4624           
1 53684U 22105AN  26068.68200096  .00002112  00000+0  16885-3 0  9995
2 53684  97.6040 310.2720 0003175  79.9673 280.1909 15.01270773193214
QPS-SAR-8 (AMATERU-IV)  
1 60542U 24149CC  26068.70418071  .00008268  00000+0  61811-3 0  9990
2 60542  97.6699 148.7511 0003873  93.1500 267.0168 15.03026697 85328
