[{"OBJECT_NAME":"STARLINK-4624","OBJECT_ID":"2022-105AN","EPOCH":"2026-03-09T16:22:04.883808","MEAN_MOTION":15.01270773,"ECCENTRICITY":0.00031749,"INCLINATION":97.604,"RA_OF_ASC_NODE":310.272,"ARG_OF_PERICENTER":79.9673,"MEAN_ANOMALY":280.1909,"EPHEMERIS_TYPE":0,"CLASSIFICATION_TYPE":"U","NORAD_CAT_ID":53684,"ELEMENT_SET_NO":999,"REV_AT_EPOCH":19321,"BSTAR":0.00016885396,"MEAN_MOTION_DOT":2.112e-5,"MEAN_MOTION_DDOT":0},{"OBJECT_NAME":"QPS-SAR-8 (AMATERU-IV)","OBJECT_ID":"2024-149CC","EPOCH":"2026-03-09T16:54:01.213344","MEAN_MOTION":15.03026697,"ECCENTRICITY":0.0003873,"INCLINATION":97.6699,"RA_OF_ASC_NODE":148.7511,"ARG_OF_PERICENTER":93.15,"MEAN_ANOMALY":267.0168,"EPHEMERIS_TYPE":0,"CLASSIFICATION_TYPE":"U","NORAD_CAT_ID":60542,"ELEMENT_SET_NO":999,"REV_AT_EPOCH":8532,"BSTAR":0.00061811246,"MEAN_MOTION_DOT":8.268e-5,"MEAN_MOTION_DDOT":0}]
